 Automated mail xmit by MAIL_REQUEST, PID= 432 Mon Jul 31 11:18:15 2017
++++++++++++++++++++++++++++++++ (part 1 of 1)  +++++++++++++++++++++++++++++++

*******************************************************************************
 Revised: Jun 17, 2016             Mimas / (Saturn)                         601
                        http://ssd.jpl.nasa.gov/?sat_phys_par
                         http://ssd.jpl.nasa.gov/?sat_elem

 SATELLITE PHYSICAL PROPERTIES:
  Mean Radius (km)        = 198.8   +- 1.5   Density (g/cm^3)  = 1.152 +- 0.027
  Mass (10^19 kg)         =   3.75           Geometric Albedo  = 0.6 
  GM (km^3/s^2)           =   2.503          V(1,0)            = +3.3

 SATELLITE ORBITAL DATA (mean elements referred to local Laplace plane):
  Semi-major axis, a (km) = 185.54(10^3)    Orbital period     = 0.9424218 d
  Eccentricity, e         = 0.0196          Rotational period  = Synchronous
  Inclination, i  (deg)   = 1.572
*******************************************************************************
 
 
*******************************************************************************
Ephemeris / MAIL_REQUEST Mon Jul 31 11:18:15 2017 Pasadena, USA  / Horizons    
*******************************************************************************
Target body name: Mimas (601)                     {source: sat389}
Center body name: Solar System Barycenter (0)     {source: DE431mx}
Center-site name: BODY CENTER
*******************************************************************************
Start time      : A.D. 2017-Jul-10 00:00:00.0000 TDB
Stop  time      : A.D. 2020-Aug-13 00:00:00.0000 TDB
Step-size       : 1440 minutes
*******************************************************************************
Center geodetic : 0.00000000,0.00000000,0.0000000 {E-lon(deg),Lat(deg),Alt(km)}
Center cylindric: 0.00000000,0.00000000,0.0000000 {E-lon(deg),Dxy(km),Dz(km)}
Center radii    : (undefined)                                                  
Output units    : KM-S                                                         
Output type     : GEOMETRIC cartesian states
Output format   : 3 (position, velocity, LT, range, range-rate)
Reference frame : ICRF/J2000.0                                                 
Coordinate systm: Ecliptic and Mean Equinox of Reference Epoch                 
*******************************************************************************
            JDTDB,            Calendar Date (TDB),                      X,                      Y,                      Z,                     VX,                     VY,                     VZ,                     LT,                     RG,                     RR,
**************************************************************************************************************************************************************************************************************************************************************************
$$SOE
2458438.500000000, A.D. 2018-Nov-16 00:00:00.0000,  2.572761378449182E+08, -1.481771308337323E+09,  1.546347690305841E+07, -1.060864147614403E+00, -6.758264063181021E+00,  4.761426400411460E+00,  5.016870904240499E+03,  1.504020059850942E+09,  6.525773971693951E+00,
2458439.500000000, A.D. 2018-Nov-17 00:00:00.0000,  2.580125690976382E+08, -1.481680121259317E+09,  1.545906471518534E+07,  3.258142926299797E+00, -9.515683718163933E+00,  5.952804639251662E+00,  5.016991895549823E+03,  1.504056332132961E+09,  9.994217439405425E+00,
2458440.500000000, A.D. 2018-Nov-18 00:00:00.0000,  2.587726604052227E+08, -1.481598555398587E+09,  1.545849178507566E+07,  8.366778394749536E+00, -1.073393758775997E+01,  6.269439667321310E+00,  5.017159426886126E+03,  1.504106556764063E+09,  1.207720020094149E+01,
2458441.500000000, A.D. 2018-Nov-19 00:00:00.0000,  2.595587168309316E+08, -1.481518438717128E+09,  1.545723103893542E+07,  1.359583194179280E+01, -1.024279004196879E+01,  5.662236053285648E+00,  5.017347930959607E+03,  1.504163068863595E+09,  1.249287519684636E+01,
2458442.500000000, A.D. 2018-Nov-20 00:00:00.0000,  2.603696001207246E+08, -1.481431245748590E+09,  1.545077816187966E+07,  1.824388495832188E+01, -8.075036268337412E+00,  4.193215417059273E+00,  5.017528721751877E+03,  1.504217268579593E+09,  1.115367630817829E+01,
2458443.500000000, A.D. 2018-Nov-21 00:00:00.0000,  2.612007275128215E+08, -1.481329150899228E+09,  1.543521945335698E+07,  2.164869271269344E+01, -4.480334604607844E+00,  2.038763071597097E+00,  5.017673444575968E+03,  1.504260655390756E+09,  8.192046540011123E+00,
2458444.500000000, A.D. 2018-Nov-22 00:00:00.0000,  2.620445016388776E+08, -1.481206126362335E+09,  1.540779800932223E+07,  2.327426407812187E+01,  7.912664725696975E-02, -5.180063506240294E-01,  5.017757918631795E+03,  1.504285980075590E+09,  3.971125702553847E+00,
2458445.500000000, A.D. 2018-Nov-23 00:00:00.0000,  2.628911714032799E+08, -1.481058915028840E+09,  1.536738667512619E+07,  2.280652659770356E+01,  4.962383046288264E+00, -3.111441693397987E+00,  5.017765817657331E+03,  1.504288348143871E+09, -9.318438761637925E-01,
2458446.500000000, A.D. 2018-Nov-24 00:00:00.0000,  2.637301649357393E+08, -1.480887730857100E+09,  1.531478488662821E+07,  2.024009185591547E+01,  9.428449609724613E+00, -5.341396445279221E+00,  5.017691732595002E+03,  1.504266138000934E+09, -5.787775648326622E+00,
2458447.500000000, A.D. 2018-Nov-25 00:00:00.0000,  2.645517626075410E+08, -1.480696471909164E+09,  1.525272925248903E+07,  1.592081357908017E+01,  1.275948095135627E+01, -6.842645895168054E+00,  5.017542838147497E+03,  1.504221500568534E+09, -9.829275909960772E+00,
2458448.500000000, A.D. 2018-Nov-26 00:00:00.0000,  2.653487823255940E+08, -1.480492257187955E+09,  1.518553697690392E+07,  1.051471134720494E+01,  1.440263798609724E+01, -7.359775705284182E+00,  5.017338353859187E+03,  1.504160197721119E+09, -1.239541529112000E+01,
2458449.500000000, A.D. 2018-Nov-27 00:00:00.0000,  2.661179192583202E+08, -1.480284267884644E+09,  1.511839293796796E+07,  4.890046778921007E+00,  1.409309938221190E+01, -6.806348680258032E+00,  5.017106526292945E+03,  1.504090697565204E+09, -1.307325769183497E+01,
2458450.500000000, A.D. 2018-Nov-28 00:00:00.0000,  2.668603293681017E+08, -1.480082154853935E+09,  1.505644974737287E+07, -5.707894809036418E-02,  1.190703786441511E+01, -5.282517983533406E+00,  5.016879749720521E+03,  1.504022711659140E+09, -1.178051514540723E+01,
2458451.500000000, A.D. 2018-Nov-29 00:00:00.0000,  2.675813166712792E+08, -1.479894395096571E+09,  1.500395469778377E+07, -3.577126272083165E+00,  8.233221360543373E+00, -3.048515470771336E+00,  5.016688995489444E+03,  1.503965524979331E+09, -8.768292804478428E+00,
2458452.500000000, A.D. 2018-Nov-30 00:00:00.0000,  2.682892816245795E+08, -1.479726961934086E+09,  1.496359457504284E+07, -5.191246081967757E+00,  3.675517833175581E+00, -4.638265457432970E-01,  5.016558835777021E+03,  1.503926504079211E+09, -4.547069961678436E+00,
2458453.500000000, A.D. 2018-Dec-01 00:00:00.0000,  2.689942201114123E+08, -1.479582560061712E+09,  1.493617450111049E+07, -4.738998775344701E+00, -1.073202789341442E+00,  2.084342880118799E+00,  5.016504054356212E+03,  1.503910081022414E+09,  2.289106005459818E-01,
2458454.500000000, A.D. 2018-Dec-02 00:00:00.0000,  2.697061992051063E+08, -1.479460465982557E+09,  1.492062766047060E+07, -2.360589062419978E+00, -5.342837914067784E+00,  4.240700578128896E+00,  5.016528227633843E+03,  1.503917327988733E+09,  4.874686755724570E+00,
2458455.500000000, A.D. 2018-Dec-03 00:00:00.0000,  2.704339598687242E+08, -1.479356847054901E+09,  1.491427888334233E+07,  1.561974868224352E+00, -8.570861016755812E+00,  5.724296547229775E+00,  5.016623947432332E+03,  1.503946024062402E+09,  8.768364371627312E+00,
2458456.500000000, A.D. 2018-Dec-04 00:00:00.0000,  2.711838890564995E+08, -1.479265447712254E+09,  1.491328432335705E+07,  6.475863362488419E+00, -1.035281569671053E+01,  6.351594170350277E+00,  5.016774463872651E+03,  1.503991147756014E+09,  1.141325566556377E+01,
2458457.500000000, A.D. 2018-Dec-05 00:00:00.0000,  2.719593441435269E+08, -1.479178436632015E+09,  1.491313852688569E+07,  1.172710643714566E+01, -1.046846304771417E+01,  6.046445861542681E+00,  5.016956060509040E+03,  1.504045589058002E+09,  1.247581363320645E+01,
2458458.500000000, A.D. 2018-Dec-06 00:00:00.0000,  2.727602932204304E+08, -1.479087371216966E+09,  1.490922670825005E+07,  1.662486450416758E+01, -8.895811912210693E+00,  4.843776540587771E+00,  5.017140998067014E+03,  1.504101031943083E+09,  1.181071122103912E+01,
2458459.500000000, A.D. 2018-Dec-07 00:00:00.0000,  2.735833149827152E+08, -1.478984208965946E+09,  1.489738035333014E+07,  2.050674029849566E+01, -5.815910616745535E+00,  2.888084127031005E+00,  5.017300823040098E+03,  1.504148946264614E+09,  9.477097914012793E+00,
2458460.500000000, A.D. 2018-Dec-08 00:00:00.0000,  2.744218775537053E+08, -1.478862303248539E+09,  1.487440824579102E+07,  2.280791878051852E+01, -1.609582991510942E+00,  4.271120977178495E-01,  5.017409789739209E+03,  1.504181613659181E+09,  5.747774381853984E+00,
2458461.500000000, A.D. 2018-Dec-09 00:00:00.0000,  2.752670397313821E+08, -1.478717376752875E+09,  1.483858566293210E+07,  2.314188084592297E+01,  3.164266987361498E+00, -2.205545978314005E+00,  5.017448464413156E+03,  1.504193208034745E+09,  1.102526765568015E+00,
2458462.500000000, A.D. 2018-Dec-10 00:00:00.0000,  2.761085754704966E+08, -1.478548281391823E+09,  1.478999738216025E+07,  2.138083180742908E+01,  7.822353212835608E+00, -4.625599701991330E+00,  5.017406888044857E+03,  1.504180743753098E+09, -3.809853648132062E+00,
2458463.500000000, A.D. 2018-Dec-11 00:00:00.0000,  2.769363896416321E+08, -1.478357399563348E+09,  1.473066384811825E+07,  1.771560476161719E+01,  1.164605276576799E+01, -6.451392870701515E+00,  5.017286746257400E+03,  1.504144726151328E+09, -8.247853908614015E+00,
